{"type": "FeatureCollection", "features": [ {"type": "Feature", "properties": {"norad_id": 66540, "name": "STARLINK-35818", "group": "last-30-days", "lat": -0.8312780745170296, "lon": -75.89652518526152, "alt_km": 347.3132297268139, "timestamp": "2025-12-04T09:47:36.302826+00:00", "meta": {"OBJECT_NAME": "STARLINK-35818", "OBJECT_ID": "2025-265AA", "EPOCH": "2025-12-04T04:00:03.000096", "MEAN_MOTION": 15.75118025, "ECCENTRICITY": 0.0001635, "INCLINATION": 43, "RA_OF_ASC_NODE": 104.675, "ARG_OF_PERICENTER": 276.6271, "MEAN_ANOMALY": 334.6884, "EPHEMERIS_TYPE": 0, "CLASSIFICATION_TYPE": "U", "NORAD_CAT_ID": 66540, "ELEMENT_SET_NO": 999, "REV_AT_EPOCH": 361, "BSTAR": -0.013748, "MEAN_MOTION_DOT": -0.01850706, "MEAN_MOTION_DDOT": 0}, "tle": {"line1": "1 66540U 25265AA  25338.16670139 -.01850706  00000+0 -13748-1 0  9997", "line2": "2 66540  43.0000 104.6750 0001635 276.6271 334.6884 15.75118025  3610"}}, "geometry": {"type": "Point", "coordinates": [-75.89652518526152, -0.8312780745170296]}}, {"type": "Feature", "properties": {"norad_id": 66541, "name": "STARLINK-35796", "group": "last-30-days", "lat": -2.136685320561175, "lon": -74.49895781009164, "alt_km": 347.32841602894314, "timestamp": "2025-12-04T09:47:36.302836+00:00", "meta": {"OBJECT_NAME": "STARLINK-35796", "OBJECT_ID": "2025-265AB", "EPOCH": "2025-12-04T04:00:03.000096", "MEAN_MOTION": 15.75120889, "ECCENTRICITY": 0.0001629, "INCLINATION": 43.0001, "RA_OF_ASC_NODE": 104.6701, "ARG_OF_PERICENTER": 272.3102, "MEAN_ANOMALY": 340.9186, "EPHEMERIS_TYPE": 0, "CLASSIFICATION_TYPE": "U", "NORAD_CAT_ID": 66541, "ELEMENT_SET_NO": 999, "REV_AT_EPOCH": 361, "BSTAR": -0.013751, "MEAN_MOTION_DOT": -0.01851274, "MEAN_MOTION_DDOT": 0}, "tle": {"line1": "1 66541U 25265AB  25338.16670139 -.01851274  00000+0 -13751-1 0  9993", "line2": "2 66541  43.0001 104.6701 0001629 272.3102 340.9186 15.75120889  3613"}}, "geometry": {"type": "Point", "coordinates": [-74.49895781009164, -2.136685320561175]}}, {"type": "Feature", "properties": {"norad_id": 66542, "name": "STARLINK-35833", "group": "last-30-days", "lat": -3.4446612903201945, "lon": -73.09447519658038, "alt_km": 347.0636088542533, "timestamp": "2025-12-04T09:47:36.302846+00:00", "meta": {"OBJECT_NAME": "STARLINK-35833", "OBJECT_ID": "2025-265AC", "EPOCH": "2025-12-04T04:00:03.000096", "MEAN_MOTION": 15.75133775, "ECCENTRICITY": 9.99e-05, "INCLINATION": 43.0002, "RA_OF_ASC_NODE": 104.6656, "ARG_OF_PERICENTER": 250.1309, "MEAN_ANOMALY": 5.0017, "EPHEMERIS_TYPE": 0, "CLASSIFICATION_TYPE": "U", "NORAD_CAT_ID": 66542, "ELEMENT_SET_NO": 999, "REV_AT_EPOCH": 361, "BSTAR": -0.013827, "MEAN_MOTION_DOT": -0.01860513, "MEAN_MOTION_DDOT": 0}, "tle": {"line1": "1 66542U 25265AC  25338.16670139 -.01860513  00000+0 -13827-1 0  9994", "line2": "2 66542  43.0002 104.6656 0000999 250.1309   5.0017 15.75133775  3616"}}, "geometry": {"type": "Point", "coordinates": [-73.09447519658038, -3.4446612903201945]}}, {"type": "Feature", "properties": {"norad_id": 66543, "name": "STARLINK-35315", "group": "last-30-days", "lat": -4.740391037945849, "lon": -71.69805326104989, "alt_km": 347.520320236702, "timestamp": "2025-12-04T09:47:36.302860+00:00", "meta": {"OBJECT_NAME": "STARLINK-35315", "OBJECT_ID": "2025-265AD", "EPOCH": "2025-12-04T04:00:03.000096", "MEAN_MOTION": 15.75146845, "ECCENTRICITY": 0.0001432, "INCLINATION": 43.0003, "RA_OF_ASC_NODE": 104.6602, "ARG_OF_PERICENTER": 271.6681, "MEAN_ANOMALY": 345.3685, "EPHEMERIS_TYPE": 0, "CLASSIFICATION_TYPE": "U", "NORAD_CAT_ID": 66543, "ELEMENT_SET_NO": 999, "REV_AT_EPOCH": 350, "BSTAR": -0.013897, "MEAN_MOTION_DOT": -0.01869997, "MEAN_MOTION_DDOT": 0}, "tle": {"line1": "1 66543U 25265AD  25338.16670139 -.01869997  00000+0 -13897-1 0  9997", "line2": "2 66543  43.0003 104.6602 0001432 271.6681 345.3685 15.75146845  3504"}}, "geometry": {"type": "Point", "coordinates": [-71.69805326104989, -4.740391037945849]}}, {"type": "Feature", "properties": {"norad_id": 66544, "name": "STARLINK-35728", "group": "last-30-days", "lat": -6.046995688390904, "lon": -70.28060396505244, "alt_km": 347.22331665940965, "timestamp": "2025-12-04T09:47:36.302871+00:00", "meta": {"OBJECT_NAME": "STARLINK-35728", "OBJECT_ID": "2025-265AE", "EPOCH": "2025-12-04T04:00:03.000096", "MEAN_MOTION": 15.75137617, "ECCENTRICITY": 0.0001268, "INCLINATION": 43.0001, "RA_OF_ASC_NODE": 104.6555, "ARG_OF_PERICENTER": 247.0546, "MEAN_ANOMALY": 11.9111, "EPHEMERIS_TYPE": 0, "CLASSIFICATION_TYPE": "U", "NORAD_CAT_ID": 66544, "ELEMENT_SET_NO": 999, "REV_AT_EPOCH": 361, "BSTAR": -0.013863, "MEAN_MOTION_DOT": -0.01865226, "MEAN_MOTION_DDOT": 0}, "tle": {"line1": "1 66544U 25265AE  25338.16670139 -.01865226  00000+0 -13863-1 0  9992", "line2": "2 66544  43.0001 104.6555 0001268 247.0546  11.9111 15.75137617  3613"}}, "geometry": {"type": "Point", "coordinates": [-70.28060396505244, -6.046995688390904]}}, {"type": "Feature", "properties": {"norad_id": 66545, "name": "SHIJIAN-30A", "group": "last-30-days", "lat": 29.46630283386239, "lon": 165.47221001947605, "alt_km": 524.8956457385548, "timestamp": "2025-12-04T09:47:36.302881+00:00", "meta": {"OBJECT_NAME": "SHIJIAN-30A", "OBJECT_ID": "2025-266A", "EPOCH": "2025-12-04T02:50:30.657696", "MEAN_MOTION": 15.15368313, "ECCENTRICITY": 0.0012789, "INCLINATION": 51.7997, "RA_OF_ASC_NODE": 13.2476, "ARG_OF_PERICENTER": 325.8812, "MEAN_ANOMALY": 34.1341, "EPHEMERIS_TYPE": 0, "CLASSIFICATION_TYPE": "U", "NORAD_CAT_ID": 66545, "ELEMENT_SET_NO": 999, "REV_AT_EPOCH": 227, "BSTAR": 0.0011708, "MEAN_MOTION_DOT": 0.00022169, "MEAN_MOTION_DDOT": 0}, "tle": {"line1": "1 66545U 25266A   25338.11841039  .00022169  00000+0  11708-2 0  9993", "line2": "2 66545  51.7997  13.2476 0012789 325.8812  34.1341 15.15368313  2278"}}, "geometry": {"type": "Point", "coordinates": [165.47221001947605, 29.46630283386239]}}, {"type": "Feature", "properties": {"norad_id": 66546, "name": "SHIJIAN-30B", "group": "last-30-days", "lat": 33.01167237897994, "lon": 161.12516237576247, "alt_km": 522.3456217149769, "timestamp": "2025-12-04T09:47:36.302891+00:00", "meta": {"OBJECT_NAME": "SHIJIAN-30B", "OBJECT_ID": "2025-266B", "EPOCH": "2025-12-04T02:51:53.600832", "MEAN_MOTION": 15.15435485, "ECCENTRICITY": 0.0010465, "INCLINATION": 51.798, "RA_OF_ASC_NODE": 13.2519, "ARG_OF_PERICENTER": 328.8892, "MEAN_ANOMALY": 31.1463, "EPHEMERIS_TYPE": 0, "CLASSIFICATION_TYPE": "U", "NORAD_CAT_ID": 66546, "ELEMENT_SET_NO": 999, "REV_AT_EPOCH": 227, "BSTAR": 0.0013606, "MEAN_MOTION_DOT": 0.00025861, "MEAN_MOTION_DDOT": 0}, "tle": {"line1": "1 66546U 25266B   25338.11937038  .00025861  00000+0  13606-2 0  9990", "line2": "2 66546  51.7980  13.2519 0010465 328.8892  31.1463 15.15435485  2276"}}, "geometry": {"type": "Point", "coordinates": [161.12516237576247, 33.01167237897994]}}, {"type": "Feature", "properties": {"norad_id": 66547, "name": "SHIJIAN-30C", "group": "last-30-days", "lat": 35.67575783846037, "lon": 157.48045713473704, "alt_km": 522.5333716823807, "timestamp": "2025-12-04T09:47:36.302901+00:00", "meta": {"OBJECT_NAME": "SHIJIAN-30C", "OBJECT_ID": "2025-266C", "EPOCH": "2025-12-04T02:52:57.305280", "MEAN_MOTION": 15.15467144, "ECCENTRICITY": 0.0011353, "INCLINATION": 51.7992, "RA_OF_ASC_NODE": 13.2574, "ARG_OF_PERICENTER": 321.0796, "MEAN_ANOMALY": 38.9362, "EPHEMERIS_TYPE": 0, "CLASSIFICATION_TYPE": "U", "NORAD_CAT_ID": 66547, "ELEMENT_SET_NO": 999, "REV_AT_EPOCH": 227, "BSTAR": 0.0011631, "MEAN_MOTION_DOT": 0.00022076, "MEAN_MOTION_DDOT": 0}, "tle": {"line1": "1 66547U 25266C   25338.12010770  .00022076  00000+0  11631-2 0  9998", "line2": "2 66547  51.7992  13.2574 0011353 321.0796  38.9362 15.15467144  2276"}}, "geometry": {"type": "Point", "coordinates": [157.48045713473704, 35.67575783846037]}}, {"type": "Feature", "properties": {"norad_id": 66548, "name": "CZ-2C R/B", "group": "last-30-days", "lat": -16.46231269577488, "lon": -155.7036839974095, "alt_km": 446.1742658255307, "timestamp": "2025-12-04T09:47:36.302911+00:00", "meta": {"OBJECT_NAME": "CZ-2C R/B", "OBJECT_ID": "2025-266D", "EPOCH": "2025-12-04T02:39:13.056192", "MEAN_MOTION": 15.29885552, "ECCENTRICITY": 0.0084658, "INCLINATION": 52.0555, "RA_OF_ASC_NODE": 12.3829, "ARG_OF_PERICENTER": 143.7106, "MEAN_ANOMALY": 216.9663, "EPHEMERIS_TYPE": 0, "CLASSIFICATION_TYPE": "U", "NORAD_CAT_ID": 66548, "ELEMENT_SET_NO": 999, "REV_AT_EPOCH": 229, "BSTAR": 0.00072095, "MEAN_MOTION_DOT": 0.00023291, "MEAN_MOTION_DDOT": 0}, "tle": {"line1": "1 66548U 25266D   25338.11056778  .00023291  00000+0  72095-3 0  9998", "line2": "2 66548  52.0555  12.3829 0084658 143.7106 216.9663 15.29885552  2297"}}, "geometry": {"type": "Point", "coordinates": [-155.7036839974095, -16.46231269577488]}}, {"type": "Feature", "properties": {"norad_id": 66549, "name": "SHIJIAN-28", "group": "last-30-days", "lat": 9.078659862996805, "lon": -47.81328441989734, "alt_km": 20946.352093885995, "timestamp": "2025-12-04T09:47:36.302927+00:00", "meta": {"OBJECT_NAME": "SHIJIAN-28", "OBJECT_ID": "2025-277A", "EPOCH": "2025-11-30T18:06:43.124256", "MEAN_MOTION": 2.28019775, "ECCENTRICITY": 0.7300519, "INCLINATION": 14.4344, "RA_OF_ASC_NODE": 275.4056, "ARG_OF_PERICENTER": 179.5026, "MEAN_ANOMALY": 182.358, "EPHEMERIS_TYPE": 0, "CLASSIFICATION_TYPE": "U", "NORAD_CAT_ID": 66549, "ELEMENT_SET_NO": 999, "REV_AT_EPOCH": 4, "BSTAR": 0.00062085, "MEAN_MOTION_DOT": 6.315e-05, "MEAN_MOTION_DDOT": 0}, "tle": {"line1": "1 66549U 25277A   25334.75466579  .00006315  00000+0  62085-3 0  9997", "line2": "2 66549  14.4344 275.4056 7300519 179.5026 182.3580  2.28019775    48"}}, "geometry": {"type": "Point", "coordinates": [-47.81328441989734, 9.078659862996805]}}]}